$$SOE
2460154.500000000, A.D. 2023-Jul-29 00:00:00.0000, 3.453619854456236E+08, 4.306823603218527E+07, -1.196366443420444E+07,
2460161.500000000, A.D. 2023-Aug-05 00:00:00.0000, 3.451888304688982E+08, 5.445025590235318E+07, -1.281545134475843E+07,
2460168.500000000, A.D. 2023-Aug-12 00:00:00.0000, 3.446239036784865E+08, 6.577063966389439E+07, -1.365269192797566E+07,
2460175.500000000, A.D. 2023-Aug-19 00:00:00.0000, 3.436725658852553E+08, 7.701743852859215E+07, -1.447462202509124E+07,
2460182.500000000, A.D. 2023-Aug-26 00:00:00.0000, 3.423404088908732E+08, 8.817905395540260E+07, -1.528050969012274E+07,
2460189.500000000, A.D. 2023-Sep-02 00:00:00.0000, 3.406332384371696E+08, 9.924423032745954E+07, -1.606965420743185E+07,
2460196.500000000, A.D. 2023-Sep-09 00:00:00.0000, 3.385570584324228E+08, 1.102020472028287E+08, -1.684138512943510E+07,
2460203.500000000, A.D. 2023-Sep-16 00:00:00.0000, 3.361180565701104E+08, 1.210419111592581E+08, -1.759506135983574E+07,
2460210.500000000, A.D. 2023-Sep-23 00:00:00.0000, 3.333225916992344E+08, 1.317535475856033E+08, -1.833007030168160E+07,
2460217.500000000, A.D. 2023-Sep-30 00:00:00.0000, 3.301771825400966E+08, 1.423269936692468E+08, -1.904582694483021E+07,
2460224.500000000, A.D. 2023-Oct-07 00:00:00.0000, 3.266884953271161E+08, 1.527525920992197E+08, -1.974177272262108E+07,
2460231.500000000, A.D. 2023-Oct-14 00:00:00.0000, 3.228633313700544E+08, 1.630209822307580E+08, -2.041737450574190E+07,
2460238.500000000, A.D. 2023-Oct-21 00:00:00.0000, 3.187086177147766E+08, 1.731230903593632E+08, -2.107212390053178E+07,
2460245.500000000, A.D. 2023-Oct-28 00:00:00.0000, 3.142313994289756E+08, 1.830501214037957E+08, -2.170553653748463E+07,
2460252.500000000, A.D. 2023-Nov-04 00:00:00.0000, 3.094388322151914E+08, 1.927935512624798E+08, -2.231715129907933E+07,
2460259.500000000, A.D. 2023-Nov-11 00:00:00.0000, 3.043381754820105E+08, 2.023451192740769E+08, -2.290652955303493E+07,
2460266.500000000, A.D. 2023-Nov-18 00:00:00.0000, 2.989367860477329E+08, 2.116968207459269E+08, -2.347325441713990E+07,
2460273.500000000, A.D. 2023-Nov-25 00:00:00.0000, 2.932421125072173E+08, 2.208408995982409E+08, -2.401693006126143E+07,
2460280.500000000, A.D. 2023-Dec-02 00:00:00.0000, 2.872616902511932E+08, 2.297698411347198E+08, -2.453718105072992E+07,
2460287.500000000, A.D. 2023-Dec-09 00:00:00.0000, 2.810031371794282E+08, 2.384763648991373E+08, -2.503365174356635E+07,
2460294.500000000, A.D. 2023-Dec-16 00:00:00.0000, 2.744741503612193E+08, 2.469534176461434E+08, -2.550600576731840E+07,
2460301.500000000, A.D. 2023-Dec-23 00:00:00.0000, 2.676825039597434E+08, 2.551941671253920E+08, -2.595392555176486E+07,
2460308.500000000, A.D. 2023-Dec-30 00:00:00.0000, 2.606360470450815E+08, 2.631919977343431E+08, -2.637711170850071E+07,
2460315.500000000, A.D. 2024-Jan-06 00:00:00.0000, 2.533426994869346E+08, 2.709405056897462E+08, -2.677528228661776E+07,
2460322.500000000, A.D. 2024-Jan-13 00:00:00.0000, 2.458104490748877E+08, 2.784334919257085E+08, -2.714817234373127E+07,
2460329.500000000, A.D. 2024-Jan-20 00:00:00.0000, 2.380473510659190E+08, 2.856649558084863E+08, -2.749553369324243E+07,
2460336.500000000, A.D. 2024-Jan-27 00:00:00.0000, 2.300615281020669E+08, 2.926290903242226E+08, -2.781713458810543E+07,
2460343.500000000, A.D. 2024-Feb-03 00:00:00.0000, 2.218611700441155E+08, 2.993202777974526E+08, -2.811275937909997E+07,
2460350.500000000, A.D. 2024-Feb-10 00:00:00.0000, 2.134545339756588E+08, 3.057330858556105E+08, -2.838220819686691E+07,
2460357.500000000, A.D. 2024-Feb-17 00:00:00.0000, 2.048499444946510E+08, 3.118622636531779E+08, -2.862529666984892E+07,
2460364.500000000, A.D. 2024-Feb-24 00:00:00.0000, 1.960557943077776E+08, 3.177027383756245E+08, -2.884185568028221E+07,
2460371.500000000, A.D. 2024-Mar-02 00:00:00.0000, 1.870805451372323E+08, 3.232496119959221E+08, -2.903173116362166E+07,
2460378.500000000, A.D. 2024-Mar-09 00:00:00.0000, 1.779327290596917E+08, 3.284981582265099E+08, -2.919478396932454E+07,
2460385.500000000, A.D. 2024-Mar-16 00:00:00.0000, 1.686209506550483E+08, 3.334438198709427E+08, -2.933088980339491E+07,
2460392.500000000, A.D. 2024-Mar-23 00:00:00.0000, 1.591538898461788E+08, 3.380822076911041E+08, -2.943993915324160E+07,
2460399.500000000, A.D. 2024-Mar-30 00:00:00.0000, 1.495403031721641E+08, 3.424091007645673E+08, -2.952183699132231E+07,
2460406.500000000, A.D. 2024-Apr-06 00:00:00.0000, 1.397890237289085E+08, 3.464204449691907E+08, -2.957650255515440E+07,
2460413.500000000, A.D. 2024-Apr-13 00:00:00.0000, 1.299089633129943E+08, 3.501123504458831E+08, -2.960386946208942E+07,
2460420.500000000, A.D. 2024-Apr-20 00:00:00.0000, 1.199091158047772E+08, 3.534810907244771E+08, -2.960388585388577E+07,
2460427.500000000, A.D. 2024-Apr-27 00:00:00.0000, 1.097985602571294E+08, 3.565231029571157E+08, -2.957651447772691E+07,
2460434.500000000, A.D. 2024-May-04 00:00:00.0000, 9.958646376059398E+07, 3.592349885650594E+08, -2.952173276932780E+07,
2460441.500000000, A.D. 2024-May-11 00:00:00.0000, 8.928208430692554E+07, 3.616135142084486E+08, -2.943953296873319E+07,
2460448.500000000, A.D. 2024-May-18 00:00:00.0000, 7.889477371692212E+07, 3.636556131131304E+08, -2.932992227514240E+07,
2460455.500000000, A.D. 2024-May-25 00:00:00.0000, 6.843398064147642E+07, 3.653583867607240E+08, -2.919292304429488E+07,
2460462.500000000, A.D. 2024-Jun-01 00:00:00.0000, 5.790925368030434E+07, 3.667191068977510E+08, -2.902857303925475E+07,
2460469.500000000, A.D. 2024-Jun-08 00:00:00.0000, 4.733024484912779E+07, 3.677352178528874E+08, -2.883692575941397E+07,
2460476.500000000, A.D. 2024-Jun-15 00:00:00.0000, 3.670671377750655E+07, 3.684043397183436E+08, -2.861805083972128E+07,
2460483.500000000, A.D. 2024-Jun-22 00:00:00.0000, 2.604853161284618E+07, 3.687242735815019E+08, -2.837203433167896E+07,
2460490.500000000, A.D. 2024-Jun-29 00:00:00.0000, 1.536568248621514E+07, 3.686930069934695E+08, -2.809897881911775E+07,
2460497.500000000, A.D. 2024-Jul-06 00:00:00.0000, 4.668265152784214E+06, 3.683087172160942E+08, -2.779900381188130E+07,
2460504.500000000, A.D. 2024-Jul-13 00:00:00.0000, -6.033503273024370E+06, 3.675697751009555E+08, -2.747224636760038E+07,
2460511.500000000, A.D. 2024-Jul-20 00:00:00.0000, -1.672928349436681E+07, 3.664747507751713E+08, -2.711886166827837E+07,
2460518.500000000, A.D. 2024-Jul-27 00:00:00.0000, -2.740861080072326E+07, 3.650224201930748E+08, -2.673902357103112E+07,
2460525.500000000, A.D. 2024-Aug-03 00:00:00.0000, -3.806089218401937E+07, 3.632117721962831E+08, -2.633292518927860E+07,
2460532.500000000, A.D. 2024-Aug-10 00:00:00.0000, -4.867540366839966E+07, 3.610420160952805E+08, -2.590077952045892E+07,
2460539.500000000, A.D. 2024-Aug-17 00:00:00.0000, -5.924128784197664E+07, 3.585125898121451E+08, -2.544282012326410E+07,
2460546.500000000, A.D. 2024-Aug-24 00:00:00.0000, -6.974755160185191E+07, 3.556231685804970E+08, -2.495930184919484E+07,
2460553.500000000, A.D. 2024-Aug-31 00:00:00.0000, -8.018306403942275E+07, 3.523736741596357E+08, -2.445050164444003E+07,
2460560.500000000, A.D. 2024-Sep-07 00:00:00.0000, -9.053655414710556E+07, 3.487642847075448E+08, -2.391671944556978E+07,
2460567.500000000, A.D. 2024-Sep-14 00:00:00.0000, -1.007966083127400E+08, 3.447954463278189E+08, -2.335827909590432E+07,
2460574.500000000, A.D. 2024-Sep-21 00:00:00.0000, -1.109516696848531E+08, 3.404678867243468E+08, -2.277552906370766E+07,
2460581.500000000, A.D. 2024-Sep-28 00:00:00.0000, -1.209900399501030E+08, 3.357826277503796E+08, -2.216884318087499E+07,
2460588.500000000, A.D. 2024-Oct-05 00:00:00.0000, -1.308998799178525E+08, 3.307409968599584E+08, -2.153862173638237E+07,
2460595.500000000, A.D. 2024-Oct-12 00:00:00.0000, -1.406692093471240E+08, 3.253446404576760E+08, -2.088529264785078E+07,
2460602.500000000, A.D. 2024-Oct-19 00:00:00.0000, -1.502859078398539E+08, 3.195955388901520E+08, -2.020931257264943E+07,
2460609.500000000, A.D. 2024-Oct-26 00:00:00.0000, -1.597377169109123E+08, 3.134960222826645E+08, -1.951116801920679E+07,
2460616.500000000, A.D. 2024-Nov-02 00:00:00.0000, -1.690122430636378E+08, 3.070487870732501E+08, -1.879137649189165E+07,
2460623.500000000, A.D. 2024-Nov-09 00:00:00.0000, -1.780969618670156E+08, 3.002569132618973E+08, -1.805048767394561E+07,
2460630.500000000, A.D. 2024-Nov-16 00:00:00.0000, -1.869792231076263E+08, 2.931238823666663E+08, -1.728908464759307E+07,
2460637.500000000, A.D. 2024-Nov-23 00:00:00.0000, -1.956462570749064E+08, 2.856535960216660E+08, -1.650778515578689E+07,
2460644.500000000, A.D. 2024-Nov-30 00:00:00.0000, -2.040851818834217E+08, 2.778503951509824E+08, -1.570724292343649E+07,
2460651.500000000, A.D. 2024-Dec-07 00:00:00.0000, -2.122830115316216E+08, 2.697190801064113E+08, -1.488814903655465E+07,
2460658.500000000, A.D. 2024-Dec-14 00:00:00.0000, -2.202266655131474E+08, 2.612649329505832E+08, -1.405123320980099E+07,
2460665.500000000, A.D. 2024-Dec-21 00:00:00.0000, -2.279029824341710E+08, 2.524937405950819E+08, -1.319726482457022E+07,
2460672.500000000, A.D. 2024-Dec-28 00:00:00.0000, -2.352987357971067E+08, 2.434118157615713E+08, -1.232705415228650E+07,
2460679.500000000, A.D. 2025-Jan-04 00:00:00.0000, -2.424006494917330E+08, 2.340260180517872E+08, -1.144145379523167E+07,
2460686.500000000, A.D. 2025-Jan-11 00:00:00.0000, -2.491954149696461E+08, 2.243437766864198E+08, -1.054136003137800E+07,
2460693.500000000, A.D. 2025-Jan-18 00:00:00.0000, -2.556697111735993E+08, 2.143731138838107E+08, -9.627714042629048E+06,
2460700.500000000, A.D. 2025-Jan-25 00:00:00.0000, -2.618102271300496E+08, 2.041226682696820E+08, -8.701503073219970E+06,
2460707.500000000, A.D. 2025-Feb-01 00:00:00.0000, -2.676036871683823E+08, 1.936017181300806E+08, -7.763761521860763E+06,
2460714.500000000, A.D. 2025-Feb-08 00:00:00.0000, -2.730368788599359E+08, 1.828202043469904E+08, -6.815571953527190E+06,
2460721.500000000, A.D. 2025-Feb-15 00:00:00.0000, -2.780966837938641E+08, 1.717887527917834E+08, -5.858066015571721E+06,
$$EOE